IRIDIUM 64 [+]          
1 25287U 98021C   17251.32067813  .00000236  00000-0  77361-4 0  9999
2 25287  86.4012 189.2106 0002141  79.8299 280.3138 14.34219385 16918
IRIDIUM 65 [+]          
1 25288U 98021D   17251.53630319  .00000225  00000-0  73345-4 0  9996
2 25288  86.4010 189.0225 0002421  82.7543 277.3928 14.34219759 16966
IRIDIUM 66 [+]          
1 25289U 98021E   17251.33336245  .00000234  00000-0  76457-4 0  9993
2 25289  86.4010 189.0100 0002325  84.7736 275.3725 14.34219401 16921
IRIDIUM 67 [+]          
1 25290U 98021F   17251.33971032  .00000021  00000-0  40508-6 0  9998
2 25290  86.4011 189.1448 0002295  83.2981 276.8476 14.34218546 16942
IRIDIUM 68 [+]          
1 25291U 98021G   17251.34605022  .00000234  00000-0  76426-4 0  9995
2 25291  86.4013 189.2624 0002253  82.1257 278.0194 14.34219207 16924
IRIDIUM 69 [-]          
1 25319U 98026A   17251.50490772  .00000225  00000-0  66805-4 0  9993
2 25319  86.4016 210.6602 0003062  49.6291 310.5175 14.38689270 15013
IRIDIUM 71 [-]          
1 25320U 98026B   17251.54078119  .00000177  00000-0  50698-4 0  9995
2 25320  86.4006 206.4982 0004311  79.2407 280.9276 14.39100799 15459
IRIDIUM 70 [+]          
1 25342U 98032A   17251.33455170  .00000016  00000-0 -11850-5 0  9990
2 25342  86.4015 189.5130 0002318  82.5734  87.4288 14.34218314 11013
IRIDIUM 72 [+]          
1 25343U 98032B   17251.35875513  .00000234  00000-0  76566-4 0  9995
2 25343  86.4012 189.1096 0002299  83.6527 276.4930 14.34218853 11021
IRIDIUM 73 [-]          
1 25344U 98032C   17251.28543355  .00000219  00000-0  52231-4 0  9990
2 25344  86.4483 167.8546 0002634  97.2911 262.8593 14.49056881 19588
IRIDIUM 75 [+]          
1 25346U 98032E   17251.36508199  .00000239  00000-0  78119-4 0  9993
2 25346  86.4014 189.3619 0002280  84.2492 275.8964 14.34219196 11590
IRIDIUM 3 [+]           
1 25431U 98048A   17251.44077369  .00000092  00000-0  25713-4 0  9993
2 25431  86.3969 220.8917 0002461  87.1588  24.3504 14.34215179997546
IRIDIUM 76 [+]          
1 25432U 98048B   17251.43825383  .00000002  00000-0 -62175-5 0  9996
2 25432  86.3967 220.6445 0002220  89.4330 270.7120 14.34215281997525
IRIDIUM 82 [-]          
1 25467U 98051A   17251.45500378  .00003505  00000-0  26331-3 0  9996
2 25467  86.4050 342.5387 0185396  94.3814 267.8619 14.89414588999246
IRIDIUM 81 [+]          
1 25468U 98051B   17251.36354886  .00000272  00000-0  82328-4 0  9995
2 25468  86.4279 347.0392 0002050 103.8729 256.2698 14.38620100994801
IRIDIUM 80 [+]          
1 25469U 98051C   17251.34362765  .00000277  00000-0  91917-4 0  9998
2 25469  86.4008 347.3311 0002253  76.6810 345.5231 14.34221022994754
IRIDIUM 77 [-]          
1 25471U 98051E   17251.53006133  .01985590 -98497-6  10590-2 0  9997
2 25471  86.4007 345.7268 0282724 309.0088  48.6309 15.70724090   177
IRIDIUM 2 [-]           
1 25527U 98066A   17251.45602808  .00004406  00000-0  22260-3 0  9998
2 25527  85.5340 343.0971 0010814 134.8200 225.3920 15.16741470 30492
IRIDIUM 86 [+]          
1 25528U 98066B   17251.27722317  .00000231  00000-0  75281-4 0  9991
2 25528  86.3963 315.0623 0002457  94.4266 265.7211 14.34224959991273
IRIDIUM 84 [+]          
1 25530U 98066D   17251.23916836  .00000231  00000-0  75257-4 0  9994
2 25530  86.3964 315.2444 0002271  96.3229 263.8225 14.34224880988907
IRIDIUM 83 [+]          
1 25531U 98066E   17251.54995210  .00000240  00000-0  78661-4 0  9994
2 25531  86.3967 315.2433 0002212  94.7698 265.3751 14.34224996986307
IRIDIUM 20 [+]          
1 25577U 98074A   17251.46992600  .00000008  00000-0 -41624-5 0  9997
2 25577  86.3966 220.5514 0002251  82.4012 277.7439 14.34214965980377
IRIDIUM 11 [+]          
1 25578U 98074B   17251.44272102 -.00000002  00000-0 -78462-5 0  9999
2 25578  86.3965 220.7636 0002247  80.1112  74.1245 14.34214306989333
IRIDIUM 14 [+]          
1 25777U 99032A   17251.52363194  .00000232  00000-0  75613-4 0  9993
2 25777  86.4013 189.1257 0002420  84.1995 275.9477 14.34219677966623
IRIDIUM 21 [+]          
1 25778U 99032B   17251.35240204  .00000224  00000-0  72952-4 0  9995
2 25778  86.4012 189.2148 0002159  86.4889 273.6554 14.34218986960031
IRIDIUM 91 [+]          
1 27372U 02005A   17251.48208537  .00000008  00000-0 -42580-5 0  9994
2 27372  86.3925 252.3315 0002589  99.7862  11.2065 14.34219433823565
IRIDIUM 90 [S]          
1 27373U 02005B   17251.54535608  .00000251  00000-0  68961-4 0  9993
2 27373  86.4477 315.2330 0002455  96.4652 263.6829 14.42962618823377
IRIDIUM 94 [+]          
1 27374U 02005C   17251.45374126  .00000106  00000-0  30620-4 0  9990
2 27374  86.3966 220.8909 0002677 100.0880  12.8113 14.34214739827889
IRIDIUM 95 [+]          
1 27375U 02005D   17251.49866466 -.00000024  00000-0 -15544-4 0  9997
2 27375  86.3925 252.3447 0002244 110.5459 249.5977 14.34218922822857
IRIDIUM 96 [+]          
1 27376U 02005E   17251.47669972 -.00000016  00000-0 -12834-4 0  9999
2 27376  86.3961 284.4199 0001552 120.0063 240.1287 14.34219991828052
IRIDIUM 97 [+]          
1 27450U 02031A   17251.51475687  .00000007  00000-0 -45478-5 0  9994
2 27450  86.3928 284.0502 0002011  83.1791 276.9633 14.34220260802178
IRIDIUM 98 [+]          
1 27451U 02031B   17251.35027863  .00000284  00000-0  94438-4 0  9991
2 27451  86.4001 347.4204 0002670  89.2416 334.6010 14.34220913803220
